{"fetched_at":"2026-07-16T06:42:38.478Z","source":"https://celestrak.org/NORAD/elements/gp.php?GROUP=spire&FORMAT=JSON","constellation":"spire","records":[{"OBJECT_NAME":"LEMUR-2-VALHALLA","OBJECT_ID":"2024-022B","EPOCH":"2026-07-15T12:47:50.902656","CLASSIFICATION_TYPE":"U","MEAN_MOTION":15.40495238,"ECCENTRICITY":0.00091803,"INCLINATION":97.4075,"RA_OF_ASC_NODE":46.8786,"ARG_OF_PERICENTER":23.0529,"MEAN_ANOMALY":337.1127,"EPHEMERIS_TYPE":0,"NORAD_CAT_ID":58900,"ELEMENT_SET_NO":999,"REV_AT_EPOCH":13663,"BSTAR":0.00024865811,"MEAN_MOTION_DOT":0.00010013,"MEAN_MOTION_DDOT":0},{"OBJECT_NAME":"LEMUR-2-CAEL","OBJECT_ID":"2024-022E","EPOCH":"2026-07-15T12:26:41.219232","CLASSIFICATION_TYPE":"U","MEAN_MOTION":15.41863619,"ECCENTRICITY":0.00070935,"INCLINATION":97.4056,"RA_OF_ASC_NODE":47.8506,"ARG_OF_PERICENTER":8.4188,"MEAN_ANOMALY":351.7176,"EPHEMERIS_TYPE":0,"NORAD_CAT_ID":58903,"ELEMENT_SET_NO":999,"REV_AT_EPOCH":13670,"BSTAR":0.00026542759,"MEAN_MOTION_DOT":0.00011187,"MEAN_MOTION_DDOT":0},{"OBJECT_NAME":"LEMUR-2-JOHNNYTRUONG","OBJECT_ID":"2024-043BA","EPOCH":"2026-07-15T11:22:38.268192","CLASSIFICATION_TYPE":"U","MEAN_MOTION":15.62579202,"ECCENTRICITY":0.00040488,"INCLINATION":97.5393,"RA_OF_ASC_NODE":349.9778,"ARG_OF_PERICENTER":92.9286,"MEAN_ANOMALY":267.2436,"EPHEMERIS_TYPE":0,"NORAD_CAT_ID":59146,"ELEMENT_SET_NO":999,"REV_AT_EPOCH":13245,"BSTAR":0.00033624039,"MEAN_MOTION_DOT":0.00029938,"MEAN_MOTION_DDOT":0},{"OBJECT_NAME":"LEMUR-2-TOMATOKECHUP","OBJECT_ID":"2024-149D","EPOCH":"2026-07-15T18:22:37.814880","CLASSIFICATION_TYPE":"U","MEAN_MOTION":15.36590795,"ECCENTRICITY":0.00033124,"INCLINATION":97.3798,"RA_OF_ASC_NODE":278.8952,"ARG_OF_PERICENTER":121.5505,"MEAN_ANOMALY":238.6063,"EPHEMERIS_TYPE":0,"NORAD_CAT_ID":60471,"ELEMENT_SET_NO":999,"REV_AT_EPOCH":10655,"BSTAR":0.00018874101,"MEAN_MOTION_DOT":0.0000666,"MEAN_MOTION_DDOT":0},{"OBJECT_NAME":"LEMUR-2-STELLA","OBJECT_ID":"2024-149BT","EPOCH":"2026-07-15T17:38:55.907520","CLASSIFICATION_TYPE":"U","MEAN_MOTION":15.12378243,"ECCENTRICITY":0.00012416,"INCLINATION":97.6737,"RA_OF_ASC_NODE":279.3258,"ARG_OF_PERICENTER":118.9056,"MEAN_ANOMALY":241.2299,"EPHEMERIS_TYPE":0,"NORAD_CAT_ID":60533,"ELEMENT_SET_NO":999,"REV_AT_EPOCH":10481,"BSTAR":0.00034817455,"MEAN_MOTION_DOT":0.00005975,"MEAN_MOTION_DDOT":0},{"OBJECT_NAME":"LEMUR-2-MARHISYAM","OBJECT_ID":"2024-149BW","EPOCH":"2026-07-15T19:01:27.649632","CLASSIFICATION_TYPE":"U","MEAN_MOTION":15.11785796,"ECCENTRICITY":0.00023539,"INCLINATION":97.6878,"RA_OF_ASC_NODE":279.8606,"ARG_OF_PERICENTER":68.7534,"MEAN_ANOMALY":291.3947,"EPHEMERIS_TYPE":0,"NORAD_CAT_ID":60536,"ELEMENT_SET_NO":999,"REV_AT_EPOCH":10480,"BSTAR":0.0003763029,"MEAN_MOTION_DOT":0.00006358,"MEAN_MOTION_DDOT":0},{"OBJECT_NAME":"LEMUR-2-AHMED-ASRAR","OBJECT_ID":"2024-149DN","EPOCH":"2026-07-15T19:09:57.856320","CLASSIFICATION_TYPE":"U","MEAN_MOTION":15.13314789,"ECCENTRICITY":0.00012778,"INCLINATION":97.7005,"RA_OF_ASC_NODE":282.0723,"ARG_OF_PERICENTER":205.5723,"MEAN_ANOMALY":154.5445,"EPHEMERIS_TYPE":0,"NORAD_CAT_ID":60576,"ELEMENT_SET_NO":999,"REV_AT_EPOCH":10489,"BSTAR":0.00039452076,"MEAN_MOTION_DOT":0.0000696,"MEAN_MOTION_DDOT":0},{"OBJECT_NAME":"LEMUR-2-LLOYD","OBJECT_ID":"2024-149DP","EPOCH":"2026-07-15T17:52:58.855296","CLASSIFICATION_TYPE":"U","MEAN_MOTION":15.09757819,"ECCENTRICITY":0.0004764,"INCLINATION":97.6747,"RA_OF_ASC_NODE":277.8984,"ARG_OF_PERICENTER":71.1619,"MEAN_ANOMALY":289.0126,"EPHEMERIS_TYPE":0,"NORAD_CAT_ID":60577,"ELEMENT_SET_NO":999,"REV_AT_EPOCH":10470,"BSTAR":0.00033428949,"MEAN_MOTION_DOT":0.00005332,"MEAN_MOTION_DDOT":0},{"OBJECT_NAME":"LEMUR-2-SQUIRRELCOMM","OBJECT_ID":"2024-149DQ","EPOCH":"2026-07-15T22:24:32.729760","CLASSIFICATION_TYPE":"U","MEAN_MOTION":15.07450137,"ECCENTRICITY":0.00040481,"INCLINATION":97.6709,"RA_OF_ASC_NODE":277.7592,"ARG_OF_PERICENTER":324.3852,"MEAN_ANOMALY":35.7105,"EPHEMERIS_TYPE":0,"NORAD_CAT_ID":60578,"ELEMENT_SET_NO":999,"REV_AT_EPOCH":10473,"BSTAR":0.00015270774,"MEAN_MOTION_DOT":0.00002251,"MEAN_MOTION_DDOT":0},{"OBJECT_NAME":"LEMUR-2-SIERRINI","OBJECT_ID":"2024-149DR","EPOCH":"2026-07-15T18:07:53.128128","CLASSIFICATION_TYPE":"U","MEAN_MOTION":15.11519717,"ECCENTRICITY":0.00064824,"INCLINATION":97.6843,"RA_OF_ASC_NODE":279.4842,"ARG_OF_PERICENTER":88.9265,"MEAN_ANOMALY":271.2707,"EPHEMERIS_TYPE":0,"NORAD_CAT_ID":60579,"ELEMENT_SET_NO":999,"REV_AT_EPOCH":10477,"BSTAR":0.00034433058,"MEAN_MOTION_DOT":0.00005771,"MEAN_MOTION_DDOT":0},{"OBJECT_NAME":"LEMUR-2-WILSON","OBJECT_ID":"2025-009CP","EPOCH":"2026-07-15T17:41:33.548640","CLASSIFICATION_TYPE":"U","MEAN_MOTION":14.95277647,"ECCENTRICITY":0.00019871,"INCLINATION":97.7021,"RA_OF_ASC_NODE":274.7014,"ARG_OF_PERICENTER":321.9983,"MEAN_ANOMALY":38.1097,"EPHEMERIS_TYPE":0,"NORAD_CAT_ID":62694,"ELEMENT_SET_NO":999,"REV_AT_EPOCH":8162,"BSTAR":0.000072753485,"MEAN_MOTION_DOT":0.00000744,"MEAN_MOTION_DDOT":0},{"OBJECT_NAME":"LEMUR-2-STAR-FOX","OBJECT_ID":"2025-009CR","EPOCH":"2026-07-15T04:38:33.025056","CLASSIFICATION_TYPE":"U","MEAN_MOTION":15.0284072,"ECCENTRICITY":0.00022307,"INCLINATION":97.691,"RA_OF_ASC_NODE":277.6011,"ARG_OF_PERICENTER":42.2446,"MEAN_ANOMALY":317.895,"EPHEMERIS_TYPE":0,"NORAD_CAT_ID":62696,"ELEMENT_SET_NO":999,"REV_AT_EPOCH":8176,"BSTAR":0.00025750175,"MEAN_MOTION_DOT":0.00003389,"MEAN_MOTION_DDOT":0},{"OBJECT_NAME":"LEMUR-2-ARIANNA","OBJECT_ID":"2025-009CU","EPOCH":"2026-07-15T18:59:14.716320","CLASSIFICATION_TYPE":"U","MEAN_MOTION":15.02848472,"ECCENTRICITY":0.00024856,"INCLINATION":97.685,"RA_OF_ASC_NODE":277.9462,"ARG_OF_PERICENTER":46.8705,"MEAN_ANOMALY":313.2728,"EPHEMERIS_TYPE":0,"NORAD_CAT_ID":62699,"ELEMENT_SET_NO":999,"REV_AT_EPOCH":8185,"BSTAR":0.00030907258,"MEAN_MOTION_DOT":0.00004081,"MEAN_MOTION_DDOT":0},{"OBJECT_NAME":"LEMUR-2-ALISIA","OBJECT_ID":"2025-009DB","EPOCH":"2026-07-15T18:19:15.929184","CLASSIFICATION_TYPE":"U","MEAN_MOTION":15.03180364,"ECCENTRICITY":0.000438,"INCLINATION":97.6973,"RA_OF_ASC_NODE":278.7448,"ARG_OF_PERICENTER":127.5198,"MEAN_ANOMALY":232.6426,"EPHEMERIS_TYPE":0,"NORAD_CAT_ID":62706,"ELEMENT_SET_NO":999,"REV_AT_EPOCH":10445,"BSTAR":0.00031293369,"MEAN_MOTION_DOT":0.0000417,"MEAN_MOTION_DDOT":0},{"OBJECT_NAME":"LEMUR-2-ROUNDTRIPPER","OBJECT_ID":"2025-009DG","EPOCH":"2026-07-15T18:26:09.797280","CLASSIFICATION_TYPE":"U","MEAN_MOTION":15.04237419,"ECCENTRICITY":0.00044796,"INCLINATION":97.7252,"RA_OF_ASC_NODE":279.4125,"ARG_OF_PERICENTER":62.8662,"MEAN_ANOMALY":297.302,"EPHEMERIS_TYPE":0,"NORAD_CAT_ID":62711,"ELEMENT_SET_NO":999,"REV_AT_EPOCH":8192,"BSTAR":0.00033299667,"MEAN_MOTION_DOT":0.00004569,"MEAN_MOTION_DDOT":0},{"OBJECT_NAME":"LEMUR-2-MYNAMEISJEFF","OBJECT_ID":"2025-009DH","EPOCH":"2026-07-15T18:23:59.378208","CLASSIFICATION_TYPE":"U","MEAN_MOTION":15.04228449,"ECCENTRICITY":0.00041154,"INCLINATION":97.7301,"RA_OF_ASC_NODE":279.8094,"ARG_OF_PERICENTER":96.2499,"MEAN_ANOMALY":263.9195,"EPHEMERIS_TYPE":0,"NORAD_CAT_ID":62712,"ELEMENT_SET_NO":999,"REV_AT_EPOCH":8192,"BSTAR":0.00032837243,"MEAN_MOTION_DOT":0.00004503,"MEAN_MOTION_DDOT":0}]}
